[{"OBJECT_NAME":"SCS-01 G","OBJECT_ID":"2025-100G","EPOCH":"2026-03-09T22:06:35.300160","MEAN_MOTION":15.25626619,"ECCENTRICITY":0.00115239,"INCLINATION":97.3761,"RA_OF_ASC_NODE":145.2582,"ARG_OF_PERICENTER":298.6971,"MEAN_ANOMALY":61.3108,"EPHEMERIS_TYPE":0,"CLASSIFICATION_TYPE":"U","NORAD_CAT_ID":63988,"ELEMENT_SET_NO":999,"REV_AT_EPOCH":4562,"BSTAR":0.00025501168,"MEAN_MOTION_DOT":6.423e-5,"MEAN_MOTION_DDOT":0},{"OBJECT_NAME":"GOOD ANCESTOR KILAKILA","OBJECT_ID":"2025-135A","EPOCH":"2026-03-09T20:23:34.960416","MEAN_MOTION":15.223265,"ECCENTRICITY":0.00056529,"INCLINATION":97.4506,"RA_OF_ASC_NODE":184.7346,"ARG_OF_PERICENTER":162.0939,"MEAN_ANOMALY":198.0498,"EPHEMERIS_TYPE":0,"CLASSIFICATION_TYPE":"U","NORAD_CAT_ID":64528,"ELEMENT_SET_NO":999,"REV_AT_EPOCH":3976,"BSTAR":0.00051974795,"MEAN_MOTION_DOT":0.00011925,"MEAN_MOTION_DDOT":0}]
